[{"OBJECT_NAME":"IRIDIUM 151","OBJECT_ID":"2017-083E","EPOCH":"2026-04-05T19:23:27.088224","MEAN_MOTION":14.34216917,"ECCENTRICITY":0.0002242,"INCLINATION":86.4014,"RA_OF_ASC_NODE":352.317,"ARG_OF_PERICENTER":84.989,"MEAN_ANOMALY":275.1561,"EPHEMERIS_TYPE":0,"CLASSIFICATION_TYPE":"U","NORAD_CAT_ID":43074,"ELEMENT_SET_NO":999,"REV_AT_EPOCH":43376,"BSTAR":2.8437e-5,"MEAN_MOTION_DOT":9.9e-7,"MEAN_MOTION_DDOT":0},{"OBJECT_NAME":"IRIDIUM 134","OBJECT_ID":"2017-083F","EPOCH":"2026-04-05T18:37:47.179200","MEAN_MOTION":14.34218175,"ECCENTRICITY":0.0002255,"INCLINATION":86.4014,"RA_OF_ASC_NODE":352.3369,"ARG_OF_PERICENTER":88.8231,"MEAN_ANOMALY":271.3223,"EPHEMERIS_TYPE":0,"CLASSIFICATION_TYPE":"U","NORAD_CAT_ID":43075,"ELEMENT_SET_NO":999,"REV_AT_EPOCH":43372,"BSTAR":4.6166e-5,"MEAN_MOTION_DOT":1.49e-6,"MEAN_MOTION_DDOT":0},{"OBJECT_NAME":"IRIDIUM 137","OBJECT_ID":"2017-083G","EPOCH":"2026-04-05T15:35:07.111104","MEAN_MOTION":14.34221952,"ECCENTRICITY":0.0002589,"INCLINATION":86.402,"RA_OF_ASC_NODE":352.4813,"ARG_OF_PERICENTER":80.0094,"MEAN_ANOMALY":280.1394,"EPHEMERIS_TYPE":0,"CLASSIFICATION_TYPE":"U","NORAD_CAT_ID":43076,"ELEMENT_SET_NO":999,"REV_AT_EPOCH":43377,"BSTAR":0.00013223,"MEAN_MOTION_DOT":3.9e-6,"MEAN_MOTION_DDOT":0},{"OBJECT_NAME":"IRIDIUM 141","OBJECT_ID":"2017-083H","EPOCH":"2026-04-05T18:46:55.236864","MEAN_MOTION":14.34220052,"ECCENTRICITY":0.0002073,"INCLINATION":86.4014,"RA_OF_ASC_NODE":352.2605,"ARG_OF_PERICENTER":84.0164,"MEAN_ANOMALY":276.1268,"EPHEMERIS_TYPE":0,"CLASSIFICATION_TYPE":"U","NORAD_CAT_ID":43077,"ELEMENT_SET_NO":999,"REV_AT_EPOCH":43379,"BSTAR":0.00012014,"MEAN_MOTION_DOT":3.56e-6,"MEAN_MOTION_DDOT":0},{"OBJECT_NAME":"IRIDIUM 153","OBJECT_ID":"2017-083J","EPOCH":"2026-04-05T20:58:59.299680","MEAN_MOTION":14.34218179,"ECCENTRICITY":0.0001843,"INCLINATION":86.3965,"RA_OF_ASC_NODE":320.7254,"ARG_OF_PERICENTER":87.6297,"MEAN_ANOMALY":272.511,"EPHEMERIS_TYPE":0,"CLASSIFICATION_TYPE":"U","NORAD_CAT_ID":43078,"ELEMENT_SET_NO":999,"REV_AT_EPOCH":43491,"BSTAR":3.2593e-5,"MEAN_MOTION_DOT":1.11e-6,"MEAN_MOTION_DDOT":0},{"OBJECT_NAME":"IRIDIUM 131","OBJECT_ID":"2017-083K","EPOCH":"2026-04-05T18:28:39.143136","MEAN_MOTION":14.34218161,"ECCENTRICITY":0.0002212,"INCLINATION":86.4022,"RA_OF_ASC_NODE":352.4468,"ARG_OF_PERICENTER":83.1105,"MEAN_ANOMALY":277.0342,"EPHEMERIS_TYPE":0,"CLASSIFICATION_TYPE":"U","NORAD_CAT_ID":43079,"ELEMENT_SET_NO":999,"REV_AT_EPOCH":43372,"BSTAR":2.4852e-5,"MEAN_MOTION_DOT":8.9e-7,"MEAN_MOTION_DDOT":0},{"OBJECT_NAME":"IRIDIUM 144","OBJECT_ID":"2018-030A","EPOCH":"2026-04-05T21:08:07.407456","MEAN_MOTION":14.34217338,"ECCENTRICITY":0.0002267,"INCLINATION":86.3965,"RA_OF_ASC_NODE":320.6536,"ARG_OF_PERICENTER":88.0626,"MEAN_ANOMALY":272.0829,"EPHEMERIS_TYPE":0,"CLASSIFICATION_TYPE":"U","NORAD_CAT_ID":43249,"ELEMENT_SET_NO":999,"REV_AT_EPOCH":41977,"BSTAR":1.1293e-5,"MEAN_MOTION_DOT":5.1e-7,"MEAN_MOTION_DDOT":0},{"OBJECT_NAME":"IRIDIUM 149","OBJECT_ID":"2018-030B","EPOCH":"2026-04-05T14:35:23.364384","MEAN_MOTION":14.34217646,"ECCENTRICITY":0.0002005,"INCLINATION":86.3961,"RA_OF_ASC_NODE":320.7356,"ARG_OF_PERICENTER":85.6803,"MEAN_ANOMALY":274.4622,"EPHEMERIS_TYPE":0,"CLASSIFICATION_TYPE":"U","NORAD_CAT_ID":43250,"ELEMENT_SET_NO":999,"REV_AT_EPOCH":41975,"BSTAR":2.0812e-5,"MEAN_MOTION_DOT":7.8e-7,"MEAN_MOTION_DDOT":0},{"OBJECT_NAME":"IRIDIUM 157","OBJECT_ID":"2018-030C","EPOCH":"2026-04-05T15:02:47.158080","MEAN_MOTION":14.34219638,"ECCENTRICITY":0.0002105,"INCLINATION":86.3962,"RA_OF_ASC_NODE":320.7791,"ARG_OF_PERICENTER":86.9701,"MEAN_ANOMALY":273.1736,"EPHEMERIS_TYPE":0,"CLASSIFICATION_TYPE":"U","NORAD_CAT_ID":43251,"ELEMENT_SET_NO":999,"REV_AT_EPOCH":41973,"BSTAR":9.1475e-5,"MEAN_MOTION_DOT":2.76e-6,"MEAN_MOTION_DDOT":0},{"OBJECT_NAME":"IRIDIUM 140","OBJECT_ID":"2018-030D","EPOCH":"2026-04-05T15:30:11.386368","MEAN_MOTION":14.3421739,"ECCENTRICITY":0.0002025,"INCLINATION":86.3963,"RA_OF_ASC_NODE":320.7838,"ARG_OF_PERICENTER":88.8522,"MEAN_ANOMALY":271.2906,"EPHEMERIS_TYPE":0,"CLASSIFICATION_TYPE":"U","NORAD_CAT_ID":43252,"ELEMENT_SET_NO":999,"REV_AT_EPOCH":41979,"BSTAR":-2.5529e-5,"MEAN_MOTION_DOT":-5.2e-7,"MEAN_MOTION_DDOT":0},{"OBJECT_NAME":"IRIDIUM 145","OBJECT_ID":"2018-030E","EPOCH":"2026-04-05T16:52:23.299680","MEAN_MOTION":14.34219214,"ECCENTRICITY":0.0002459,"INCLINATION":86.3963,"RA_OF_ASC_NODE":320.7325,"ARG_OF_PERICENTER":90.1822,"MEAN_ANOMALY":269.9656,"EPHEMERIS_TYPE":0,"CLASSIFICATION_TYPE":"U","NORAD_CAT_ID":43253,"ELEMENT_SET_NO":999,"REV_AT_EPOCH":41973,"BSTAR":7.2635e-5,"MEAN_MOTION_DOT":2.23e-6,"MEAN_MOTION_DDOT":0},{"OBJECT_NAME":"IRIDIUM 146","OBJECT_ID":"2018-030F","EPOCH":"2026-04-05T21:26:23.364672","MEAN_MOTION":14.34218346,"ECCENTRICITY":0.0002259,"INCLINATION":86.3963,"RA_OF_ASC_NODE":320.6654,"ARG_OF_PERICENTER":87.132,"MEAN_ANOMALY":273.0134,"EPHEMERIS_TYPE":0,"CLASSIFICATION_TYPE":"U","NORAD_CAT_ID":43254,"ELEMENT_SET_NO":999,"REV_AT_EPOCH":41977,"BSTAR":3.999e-5,"MEAN_MOTION_DOT":1.32e-6,"MEAN_MOTION_DDOT":0},{"OBJECT_NAME":"IRIDIUM 148","OBJECT_ID":"2018-030G","EPOCH":"2026-04-05T20:40:42.424896","MEAN_MOTION":14.34222258,"ECCENTRICITY":0.0002139,"INCLINATION":86.3964,"RA_OF_ASC_NODE":320.7207,"ARG_OF_PERICENTER":85.6597,"MEAN_ANOMALY":274.4843,"EPHEMERIS_TYPE":0,"CLASSIFICATION_TYPE":"U","NORAD_CAT_ID":43255,"ELEMENT_SET_NO":999,"REV_AT_EPOCH":41980,"BSTAR":0.00010735,"MEAN_MOTION_DOT":3.2e-6,"MEAN_MOTION_DDOT":0},{"OBJECT_NAME":"IRIDIUM 142","OBJECT_ID":"2018-030H","EPOCH":"2026-04-05T16:34:07.315680","MEAN_MOTION":14.34218709,"ECCENTRICITY":0.0002389,"INCLINATION":86.3958,"RA_OF_ASC_NODE":320.6838,"ARG_OF_PERICENTER":89.5792,"MEAN_ANOMALY":270.5677,"EPHEMERIS_TYPE":0,"CLASSIFICATION_TYPE":"U","NORAD_CAT_ID":43256,"ELEMENT_SET_NO":999,"REV_AT_EPOCH":41974,"BSTAR":4.7406e-5,"MEAN_MOTION_DOT":1.53e-6,"MEAN_MOTION_DDOT":0},{"OBJECT_NAME":"IRIDIUM 150","OBJECT_ID":"2018-030J","EPOCH":"2026-04-05T20:49:51.360384","MEAN_MOTION":14.34218088,"ECCENTRICITY":0.0002164,"INCLINATION":86.3966,"RA_OF_ASC_NODE":320.7236,"ARG_OF_PERICENTER":88.3395,"MEAN_ANOMALY":271.8048,"EPHEMERIS_TYPE":0,"CLASSIFICATION_TYPE":"U","NORAD_CAT_ID":43257,"ELEMENT_SET_NO":999,"REV_AT_EPOCH":41979,"BSTAR":2.4458e-5,"MEAN_MOTION_DOT":8.8e-7,"MEAN_MOTION_DDOT":0},{"OBJECT_NAME":"IRIDIUM 143","OBJECT_ID":"2018-030K","EPOCH":"2026-04-05T17:01:31.312416","MEAN_MOTION":14.34217252,"ECCENTRICITY":0.0002293,"INCLINATION":86.3967,"RA_OF_ASC_NODE":320.8796,"ARG_OF_PERICENTER":89.1763,"MEAN_ANOMALY":270.9696,"EPHEMERIS_TYPE":0,"CLASSIFICATION_TYPE":"U","NORAD_CAT_ID":43258,"ELEMENT_SET_NO":999,"REV_AT_EPOCH":41970,"BSTAR":8.166e-5,"MEAN_MOTION_DOT":2.48e-6,"MEAN_MOTION_DDOT":0},{"OBJECT_NAME":"IRIDIUM 161","OBJECT_ID":"2018-047C","EPOCH":"2026-04-05T18:54:08.290944","MEAN_MOTION":14.43278513,"ECCENTRICITY":0.000215,"INCLINATION":86.4453,"RA_OF_ASC_NODE":118.7534,"ARG_OF_PERICENTER":85.0978,"MEAN_ANOMALY":275.0468,"EPHEMERIS_TYPE":0,"CLASSIFICATION_TYPE":"U","NORAD_CAT_ID":43478,"ELEMENT_SET_NO":999,"REV_AT_EPOCH":41469,"BSTAR":5.6745e-5,"MEAN_MOTION_DOT":2.11e-6,"MEAN_MOTION_DDOT":0}]
