IRIDIUM 151             
1 43074U 17083E   26095.80795241  .00000099  00000+0  28437-4 0  9990
2 43074  86.4014 352.3170 0002242  84.9890 275.1561 14.34216917433760
IRIDIUM 134             
1 43075U 17083F   26095.77624050  .00000149  00000+0  46166-4 0  9991
2 43075  86.4014 352.3369 0002255  88.8231 271.3223 14.34218175433724
IRIDIUM 137             
1 43076U 17083G   26095.64938786  .00000390  00000+0  13223-3 0  9997
2 43076  86.4020 352.4813 0002589  80.0094 280.1394 14.34221952433777
IRIDIUM 141             
1 43077U 17083H   26095.78258376  .00000356  00000+0  12014-3 0  9992
2 43077  86.4014 352.2605 0002073  84.0164 276.1268 14.34220052433795
IRIDIUM 153             
1 43078U 17083J   26095.87429745  .00000111  00000+0  32593-4 0  9997
2 43078  86.3965 320.7254 0001843  87.6297 272.5110 14.34218179434918
IRIDIUM 131             
1 43079U 17083K   26095.76989749  .00000089  00000+0  24852-4 0  9994
2 43079  86.4022 352.4468 0002212  83.1105 277.0342 14.34218161433729
IRIDIUM 144             
1 43249U 18030A   26095.88064129  .00000051  00000+0  11293-4 0  9999
2 43249  86.3965 320.6536 0002267  88.0626 272.0829 14.34217338419777
IRIDIUM 149             
1 43250U 18030B   26095.60790931  .00000078  00000+0  20812-4 0  9994
2 43250  86.3961 320.7356 0002005  85.6803 274.4622 14.34217646419753
IRIDIUM 157             
1 43251U 18030C   26095.62693470  .00000276  00000+0  91475-4 0  9990
2 43251  86.3962 320.7791 0002105  86.9701 273.1736 14.34219638419733
IRIDIUM 140             
1 43252U 18030D   26095.64596512 -.00000052  00000+0 -25529-4 0  9993
2 43252  86.3963 320.7838 0002025  88.8522 271.2906 14.34217390419797
IRIDIUM 145             
1 43253U 18030E   26095.70304745  .00000223  00000+0  72635-4 0  9994
2 43253  86.3963 320.7325 0002459  90.1822 269.9656 14.34219214419736
IRIDIUM 146             
1 43254U 18030F   26095.89332598  .00000132  00000+0  39990-4 0  9998
2 43254  86.3963 320.6654 0002259  87.1320 273.0134 14.34218346419774
IRIDIUM 148             
1 43255U 18030G   26095.86160214  .00000320  00000+0  10735-3 0  9994
2 43255  86.3964 320.7207 0002139  85.6597 274.4843 14.34222258419800
IRIDIUM 142             
1 43256U 18030H   26095.69036245  .00000153  00000+0  47406-4 0  9992
2 43256  86.3958 320.6838 0002389  89.5792 270.5677 14.34218709419741
IRIDIUM 150             
1 43257U 18030J   26095.86795556  .00000088  00000+0  24458-4 0  9998
2 43257  86.3966 320.7236 0002164  88.3395 271.8048 14.34218088419792
IRIDIUM 143             
1 43258U 18030K   26095.70939019  .00000248  00000+0  81660-4 0  9992
2 43258  86.3967 320.8796 0002293  89.1763 270.9696 14.34217252419709
IRIDIUM 161             
1 43478U 18047C   26095.78759596  .00000211  00000+0  56745-4 0  9998
2 43478  86.4453 118.7534 0002150  85.0978 275.0468 14.43278513414696
